{"type": "FeatureCollection", "features": [ {"type": "Feature", "properties": {"norad_id": 32289, "name": "YAOGAN-3", "group": "resource", "lat": 59.78258136550265, "lon": -7.747627641542948, "alt_km": 591.7476624319806, "timestamp": "2025-12-05T05:43:14.770975+00:00", "meta": {"OBJECT_NAME": "YAOGAN-3", "OBJECT_ID": "2007-055A", "EPOCH": "2025-12-04T18:09:56.181600", "MEAN_MOTION": 14.89797943, "ECCENTRICITY": 0.0001525, "INCLINATION": 97.837, "RA_OF_ASC_NODE": 5.4545, "ARG_OF_PERICENTER": 79.0492, "MEAN_ANOMALY": 281.0897, "EPHEMERIS_TYPE": 0, "CLASSIFICATION_TYPE": "U", "NORAD_CAT_ID": 32289, "ELEMENT_SET_NO": 999, "REV_AT_EPOCH": 97690, "BSTAR": 0.00062156, "MEAN_MOTION_DOT": 5.911e-05, "MEAN_MOTION_DDOT": 0}, "tle": {"line1": "1 32289U 07055A   25338.75690025  .00005911  00000+0  62156-3 0  9994", "line2": "2 32289  97.8370   5.4545 0001525  79.0492 281.0897 14.89797943976904"}}, "geometry": {"type": "Point", "coordinates": [-7.747627641542948, 59.78258136550265]}}, {"type": "Feature", "properties": {"norad_id": 32376, "name": "COSMO-SKYMED 2", "group": "resource", "lat": -6.794605454107454, "lon": -20.270849625744084, "alt_km": 626.5978314558361, "timestamp": "2025-12-05T05:43:14.770986+00:00", "meta": {"OBJECT_NAME": "COSMO-SKYMED 2", "OBJECT_ID": "2007-059A", "EPOCH": "2025-12-04T19:09:34.151616", "MEAN_MOTION": 14.82151526, "ECCENTRICITY": 0.0001565, "INCLINATION": 97.8806, "RA_OF_ASC_NODE": 160.2415, "ARG_OF_PERICENTER": 87.948, "MEAN_ANOMALY": 272.1913, "EPHEMERIS_TYPE": 0, "CLASSIFICATION_TYPE": "U", "NORAD_CAT_ID": 32376, "ELEMENT_SET_NO": 999, "REV_AT_EPOCH": 97320, "BSTAR": 0.00017129, "MEAN_MOTION_DOT": 1.312e-05, "MEAN_MOTION_DDOT": 0}, "tle": {"line1": "1 32376U 07059A   25338.79831194  .00001312  00000+0  17129-3 0  9994", "line2": "2 32376  97.8806 160.2415 0001565  87.9480 272.1913 14.82151526973204"}}, "geometry": {"type": "Point", "coordinates": [-20.270849625744084, -6.794605454107454]}}, {"type": "Feature", "properties": {"norad_id": 32382, "name": "RADARSAT-2", "group": "resource", "lat": 75.07990551346106, "lon": -161.54885799734257, "alt_km": 783.8717249760557, "timestamp": "2025-12-05T05:43:14.770996+00:00", "meta": {"OBJECT_NAME": "RADARSAT-2", "OBJECT_ID": "2007-061A", "EPOCH": "2025-12-04T17:29:22.003296", "MEAN_MOTION": 14.29984287, "ECCENTRICITY": 0.0001076, "INCLINATION": 98.5799, "RA_OF_ASC_NODE": 343.4353, "ARG_OF_PERICENTER": 90.3652, "MEAN_ANOMALY": 269.7654, "EPHEMERIS_TYPE": 0, "CLASSIFICATION_TYPE": "U", "NORAD_CAT_ID": 32382, "ELEMENT_SET_NO": 999, "REV_AT_EPOCH": 93816, "BSTAR": 8.3277e-05, "MEAN_MOTION_DOT": 1.71e-06, "MEAN_MOTION_DDOT": 0}, "tle": {"line1": "1 32382U 07061A   25338.72872689  .00000171  00000+0  83277-4 0  9991", "line2": "2 32382  98.5799 343.4353 0001076  90.3652 269.7654 14.29984287938161"}}, "geometry": {"type": "Point", "coordinates": [-161.54885799734257, 75.07990551346106]}}, {"type": "Feature", "properties": {"norad_id": 32783, "name": "CARTOSAT-2A", "group": "resource", "lat": 52.90689580103046, "lon": 18.858970406154477, "alt_km": 619.9623609437704, "timestamp": "2025-12-05T05:43:14.771007+00:00", "meta": {"OBJECT_NAME": "CARTOSAT-2A", "OBJECT_ID": "2008-021A", "EPOCH": "2025-12-04T18:06:47.310336", "MEAN_MOTION": 14.7891425, "ECCENTRICITY": 0.0012401, "INCLINATION": 97.7942, "RA_OF_ASC_NODE": 28.8274, "ARG_OF_PERICENTER": 29.6842, "MEAN_ANOMALY": 330.5071, "EPHEMERIS_TYPE": 0, "CLASSIFICATION_TYPE": "U", "NORAD_CAT_ID": 32783, "ELEMENT_SET_NO": 999, "REV_AT_EPOCH": 95006, "BSTAR": 0.00024182, "MEAN_MOTION_DOT": 1.735e-05, "MEAN_MOTION_DDOT": 0}, "tle": {"line1": "1 32783U 08021A   25338.75471424  .00001735  00000+0  24182-3 0  9994", "line2": "2 32783  97.7942  28.8274 0012401  29.6842 330.5071 14.78914250950063"}}, "geometry": {"type": "Point", "coordinates": [18.858970406154477, 52.90689580103046]}}, {"type": "Feature", "properties": {"norad_id": 33320, "name": "HUANJING 1A (HJ-1A)", "group": "resource", "lat": 20.367375338174845, "lon": 150.71180962064665, "alt_km": 621.6711773095622, "timestamp": "2025-12-05T05:43:14.771017+00:00", "meta": {"OBJECT_NAME": "HUANJING 1A (HJ-1A)", "OBJECT_ID": "2008-041A", "EPOCH": "2025-12-04T17:40:26.802912", "MEAN_MOTION": 14.83354932, "ECCENTRICITY": 0.0020609, "INCLINATION": 97.653, "RA_OF_ASC_NODE": 327.3696, "ARG_OF_PERICENTER": 59.3492, "MEAN_ANOMALY": 300.9751, "EPHEMERIS_TYPE": 0, "CLASSIFICATION_TYPE": "U", "NORAD_CAT_ID": 33320, "ELEMENT_SET_NO": 999, "REV_AT_EPOCH": 92957, "BSTAR": 0.00042685, "MEAN_MOTION_DOT": 3.461e-05, "MEAN_MOTION_DDOT": 0}, "tle": {"line1": "1 33320U 08041A   25338.73642133  .00003461  00000+0  42685-3 0  9995", "line2": "2 33320  97.6530 327.3696 0020609  59.3492 300.9751 14.83354932929577"}}, "geometry": {"type": "Point", "coordinates": [150.71180962064665, 20.367375338174845]}}, {"type": "Feature", "properties": {"norad_id": 33321, "name": "HUANJING 1B (HJ-1B)", "group": "resource", "lat": 34.73913299413333, "lon": -33.77308334688154, "alt_km": 606.584891886856, "timestamp": "2025-12-05T05:43:14.771028+00:00", "meta": {"OBJECT_NAME": "HUANJING 1B (HJ-1B)", "OBJECT_ID": "2008-041B", "EPOCH": "2025-12-04T18:13:34.358016", "MEAN_MOTION": 14.82789219, "ECCENTRICITY": 0.0038222, "INCLINATION": 97.6391, "RA_OF_ASC_NODE": 331.1095, "ARG_OF_PERICENTER": 101.0469, "MEAN_ANOMALY": 259.5047, "EPHEMERIS_TYPE": 0, "CLASSIFICATION_TYPE": "U", "NORAD_CAT_ID": 33321, "ELEMENT_SET_NO": 999, "REV_AT_EPOCH": 92959, "BSTAR": 0.00031985, "MEAN_MOTION_DOT": 2.568e-05, "MEAN_MOTION_DDOT": 0}, "tle": {"line1": "1 33321U 08041B   25338.75942544  .00002568  00000+0  31985-3 0  9995", "line2": "2 33321  97.6391 331.1095 0038222 101.0469 259.5047 14.82789219929596"}}, "geometry": {"type": "Point", "coordinates": [-33.77308334688154, 34.73913299413333]}}, {"type": "Feature", "properties": {"norad_id": 33331, "name": "GEOEYE 1", "group": "resource", "lat": 32.62235014633059, "lon": -124.14016772773171, "alt_km": 677.7641927132745, "timestamp": "2025-12-05T05:43:14.771039+00:00", "meta": {"OBJECT_NAME": "GEOEYE 1", "OBJECT_ID": "2008-042A", "EPOCH": "2025-12-04T15:56:12.064128", "MEAN_MOTION": 14.64795668, "ECCENTRICITY": 0.0002931, "INCLINATION": 98.1262, "RA_OF_ASC_NODE": 50.0453, "ARG_OF_PERICENTER": 312.0815, "MEAN_ANOMALY": 48.0138, "EPHEMERIS_TYPE": 0, "CLASSIFICATION_TYPE": "U", "NORAD_CAT_ID": 33331, "ELEMENT_SET_NO": 999, "REV_AT_EPOCH": 92167, "BSTAR": 0.00024057, "MEAN_MOTION_DOT": 1.236e-05, "MEAN_MOTION_DDOT": 0}, "tle": {"line1": "1 33331U 08042A   25338.66402852  .00001236  00000+0  24057-3 0  9993", "line2": "2 33331  98.1262  50.0453 0002931 312.0815  48.0138 14.64795668921670"}}, "geometry": {"type": "Point", "coordinates": [-124.14016772773171, 32.62235014633059]}}, {"type": "Feature", "properties": {"norad_id": 33396, "name": "THEOS", "group": "resource", "lat": 49.99181853392819, "lon": -132.0788721919439, "alt_km": 819.7479018931554, "timestamp": "2025-12-05T05:43:14.771050+00:00", "meta": {"OBJECT_NAME": "THEOS", "OBJECT_ID": "2008-049A", "EPOCH": "2025-12-04T18:58:07.746816", "MEAN_MOTION": 14.20093845, "ECCENTRICITY": 0.00011, "INCLINATION": 98.5879, "RA_OF_ASC_NODE": 37.1142, "ARG_OF_PERICENTER": 100.2109, "MEAN_ANOMALY": 259.9191, "EPHEMERIS_TYPE": 0, "CLASSIFICATION_TYPE": "U", "NORAD_CAT_ID": 33396, "ELEMENT_SET_NO": 999, "REV_AT_EPOCH": 89037, "BSTAR": 9.4553e-05, "MEAN_MOTION_DOT": 1.59e-06, "MEAN_MOTION_DDOT": 0}, "tle": {"line1": "1 33396U 08049A   25338.79036744  .00000159  00000+0  94553-4 0  9990", "line2": "2 33396  98.5879  37.1142 0001100 100.2109 259.9191 14.20093845890374"}}, "geometry": {"type": "Point", "coordinates": [-132.0788721919439, 49.99181853392819]}}, {"type": "Feature", "properties": {"norad_id": 33412, "name": "COSMO-SKYMED 3", "group": "resource", "lat": 76.56842401595388, "lon": 154.23493718228198, "alt_km": 548.9177054935653, "timestamp": "2025-12-05T05:43:14.771061+00:00", "meta": {"OBJECT_NAME": "COSMO-SKYMED 3", "OBJECT_ID": "2008-054A", "EPOCH": "2025-12-04T18:12:06.753600", "MEAN_MOTION": 15.05235671, "ECCENTRICITY": 0.0015568, "INCLINATION": 97.846, "RA_OF_ASC_NODE": 189.0161, "ARG_OF_PERICENTER": 200.7258, "MEAN_ANOMALY": 159.3339, "EPHEMERIS_TYPE": 0, "CLASSIFICATION_TYPE": "U", "NORAD_CAT_ID": 33412, "ELEMENT_SET_NO": 999, "REV_AT_EPOCH": 92767, "BSTAR": 0.00068411, "MEAN_MOTION_DOT": 9.737e-05, "MEAN_MOTION_DDOT": 0}, "tle": {"line1": "1 33412U 08054A   25338.75841150  .00009737  00000+0  68411-3 0  9990", "line2": "2 33412  97.8460 189.0161 0015568 200.7258 159.3339 15.05235671927673"}}, "geometry": {"type": "Point", "coordinates": [154.23493718228198, 76.56842401595388]}}, {"type": "Feature", "properties": {"norad_id": 33446, "name": "YAOGAN-4", "group": "resource", "lat": -48.690075024122585, "lon": -81.47735023140271, "alt_km": 619.9344028260366, "timestamp": "2025-12-05T05:43:14.771071+00:00", "meta": {"OBJECT_NAME": "YAOGAN-4", "OBJECT_ID": "2008-061A", "EPOCH": "2025-12-04T16:59:04.308864", "MEAN_MOTION": 14.82643182, "ECCENTRICITY": 0.0014289, "INCLINATION": 97.9172, "RA_OF_ASC_NODE": 268.8863, "ARG_OF_PERICENTER": 350.1762, "MEAN_ANOMALY": 9.917, "EPHEMERIS_TYPE": 0, "CLASSIFICATION_TYPE": "U", "NORAD_CAT_ID": 33446, "ELEMENT_SET_NO": 999, "REV_AT_EPOCH": 91684, "BSTAR": 0.00041256, "MEAN_MOTION_DOT": 3.277e-05, "MEAN_MOTION_DDOT": 0}, "tle": {"line1": "1 33446U 08061A   25338.70768876  .00003277  00000+0  41256-3 0  9994", "line2": "2 33446  97.9172 268.8863 0014289 350.1762   9.9170 14.82643182916849"}}, "geometry": {"type": "Point", "coordinates": [-81.47735023140271, -48.690075024122585]}}]}